norad_id,name,regime,epoch,line1,line2,inclination,eccentricity,mean_motion,raan,arg_pericenter,mean_anomaly
19751,COSMOS 1989 (ETALON 1),NSO,16113.58688461,1 19751U 89001C   16113.58688461 +.00000023 +00000-0 +00000-0 0 0001\,2 19751 064.1447 199.4423 0020441 207.9596 125.4782 02.1315642821233,64.1447,0.0020441,2.13156428,199.4423,207.9596,125.4782
19751,COSMOS 1989 (ETALON 1),NSO,16114.50683130,1 19751U 89001C   16114.50683130  .00000028  00000-0  00000+0 0  4725\,2 19751  64.1447 199.4107 0020443 207.9623 111.4087  2.13156423212424,64.1447,0.0020443,2.13156423,199.4107,207.9623,111.4087
19751,COSMOS 1989 (ETALON 1),NSO,16114.87830818,1 19751U 89001C   16114.87830818 +.00000029 +00000-0 +00000-0 0 0001\,2 19751 064.1447 199.3980 0020442 207.9590 036.4697 02.1315642021236,64.1447,0.0020442,2.1315642,199.398,207.959,36.4697
19751,COSMOS 1989 (ETALON 1),NSO,16115.47517689,1 19751U 89001C   16115.47517689 +.00000030 +00000-0 +00000-0 0 0001\,2 19751 064.1447 199.3775 0020445 207.9581 134.4855 02.1315641321237,64.1447,0.0020445,2.13156413,199.3775,207.9581,134.4855
19751,COSMOS 1989 (ETALON 1),NSO,16116.47478314,1 19751U 89001C   16116.47478314  .00000029  00000-0  00000+0 0  4731\,2 19751  64.1446 199.3432 0020445 207.9512 181.5533  2.13156400212476,64.1446,0.0020445,2.131564,199.3432,207.9512,181.5533
19751,COSMOS 1989 (ETALON 1),NSO,16116.76410411,1 19751U 89001C   16116.76410411 +.00000028 +00000-0 +00000-0 0 0001\,2 19751 064.1446 199.3333 0020445 207.9442 043.5746 02.1315639621240,64.1446,0.0020445,2.13156396,199.3333,207.9442,43.5746
19751,COSMOS 1989 (ETALON 1),NSO,16117.48290868,1 19751U 89001C   16117.48290868  .00000026  00000-0  00000+0 0  4747\,2 19751  64.1445 199.3086 0020446 207.9437 235.1592  2.13156384212491,64.1445,0.0020446,2.13156384,199.3086,207.9437,235.1592
19751,COSMOS 1989 (ETALON 1),NSO,16117.71336689,1 19751U 89001C   16117.71336689 +.00000025 +00000-0 +00000-0 0 0001\,2 19751 064.1445 199.3007 0020448 207.9378 052.0101 02.1315638021242,64.1445,0.0020448,2.1315638,199.3007,207.9378,52.0101
19751,COSMOS 1989 (ETALON 1),NSO,16118.83617735,1 19751U 89001C   16118.83617735  .00000020  00000-0  00000+0 0  4758\,2 19751  64.1444 199.2622 0020452 207.9407 193.6105  2.13156359212523,64.1444,0.0020452,2.13156359,199.2622,207.9407,193.6105
19751,COSMOS 1989 (ETALON 1),NSO,16119.36554381,1 19751U 89001C   16119.36554381 +.00000019 +00000-0 +00000-0 0 0001\,2 19751 064.1444 199.2441 0020454 207.9419 239.8256 02.1315635021246,64.1444,0.0020454,2.1315635,199.2441,207.9419,239.8256
19751,COSMOS 1989 (ETALON 1),NSO,16120.01111199,1 19751U 89001C   16120.01111199  .00000017  00000-0  00000+0 0  4761\,2 19751  64.1444 199.2219 0020462 207.9558  15.1969  2.13156339212549,64.1444,0.0020462,2.13156339,199.2219,207.9558,15.1969
19751,COSMOS 1989 (ETALON 1),NSO,16120.26074567,1 19751U 89001C   16120.26074567 +.00000016 +00000-0 +00000-0 0 0001\,2 19751 064.1444 199.2134 0020463 207.9608 206.7516 02.1315633521248,64.1444,0.0020463,2.13156335,199.2134,207.9608,206.7516
19751,COSMOS 1989 (ETALON 1),NSO,16121.76838373,1 19751U 89001C   16121.76838373  .00000016  00000-0  00000+0 0  4774\,2 19751  64.1443 199.1616 0020472 207.9771 283.6410  2.13156314212586,64.1443,0.0020472,2.13156314,199.1616,207.9771,283.641
19751,COSMOS 1989 (ETALON 1),NSO,16122.58440765,1 19751U 89001C   16122.58440765 +.00000019 +00000-0 +00000-0 0 0001\,2 19751 064.1443 199.1336 0020477 207.9890 189.8157 02.1315630421253,64.1443,0.0020477,2.13156304,199.1336,207.989,189.8157
19751,COSMOS 1989 (ETALON 1),NSO,16123.57382875,1 19751U 89001C   16123.57382875  .00000025  00000-0  00000+0 0  4787\,2 19751  64.1443 199.0997 0020480 207.9934 229.0564  2.13156297212626,64.1443,0.002048,2.13156297,199.0997,207.9934,229.0564
19751,COSMOS 1989 (ETALON 1),NSO,16124.88362963,1 19751U 89001C   16124.88362963  .00000035  00000-0  00000+0 0  4790\,2 19751  64.1443 199.0547 0020484 208.0001 154.1423  2.13156290212656,64.1443,0.0020484,2.1315629,199.0547,208.0001,154.1423
19751,COSMOS 1989 (ETALON 1),NSO,16125.87816046,1 19751U 89001C   16125.87816046 +.00000043 +00000-0 +00000-0 0 0001\,2 19751 064.1443 199.0206 0020485 207.9995 197.3090 02.1315628821260,64.1443,0.0020485,2.13156288,199.0206,207.9995,197.309
19751,COSMOS 1989 (ETALON 1),NSO,16126.03945949,1 19751U 89001C   16126.03945949  .00000044  00000-0  00000+0 0  4802\,2 19751  64.1443 199.0150 0020487 208.0000 321.0835  2.13156287212678,64.1443,0.0020487,2.13156287,199.015,208.0,321.0835
19751,COSMOS 1989 (ETALON 1),NSO,16126.28821133,1 19751U 89001C   16126.28821133  .00000003  00000-0  10000-3 0  4829\,2 19751  64.1442 199.0067 0020464 207.7968 152.1689  2.13156367212688,64.1442,0.0020464,2.13156367,199.0067,207.7968,152.1689
19751,COSMOS 1989 (ETALON 1),NSO,16126.76636324,1 19751U 89001C   16126.76636324 +.00000047 +00000-0 +00000-0 0 0001\,2 19751 064.1442 198.9901 0020486 207.9989 158.8835 02.1315628921262,64.1442,0.0020486,2.13156289,198.9901,207.9989,158.8835
19751,COSMOS 1989 (ETALON 1),NSO,16127.30043133,1 19751U 89001C   16127.30043133  .00000048  00000-0  00000+0 0  4834\,2 19751  64.1442 198.9717 0020488 207.9974 208.7091  2.13156290212706,64.1442,0.0020488,2.1315629,198.9717,207.9974,208.7091
19751,COSMOS 1989 (ETALON 1),NSO,16127.76555203,1 19751U 89001C   16127.76555203 +.00000047 +00000-0 +00000-0 0 0001\,2 19751 064.1442 198.9558 0020489 207.9995 205.6234 02.1315629321264,64.1442,0.0020489,2.13156293,198.9558,207.9995,205.6234
19751,COSMOS 1989 (ETALON 1),NSO,16128.76296831,1 19751U 89001C   16128.76296831  .00000043  00000-0  00000+0 0  4846\,2 19751  64.1441 198.9215 0020493 208.0019 251.0013  2.13156301212737,64.1441,0.0020493,2.13156301,198.9215,208.0019,251.0013
19751,COSMOS 1989 (ETALON 1),NSO,16129.53664596,1 19751U 89001C   16129.53664596 +.00000035 +00000-0 +00000-0 0 0001\,2 19751 064.1441 198.8949 0020495 208.0111 124.6837 02.1315631021267,64.1441,0.0020495,2.1315631,198.8949,208.0111,124.6837
19751,COSMOS 1989 (ETALON 1),NSO,16130.55502154,1 19751U 89001C   16130.55502154  .00000023  00000-0  00000+0 0  4853\,2 19751  64.1441 198.8600 0020499 208.0209 186.1378  2.13156326212774,64.1441,0.0020499,2.13156326,198.86,208.0209,186.1378
19751,COSMOS 1989 (ETALON 1),NSO,16130.61817249,1 19751U 89001C   16130.61817249 +.00000022 +00000-0 +00000-0 0 0001\,2 19751 064.1441 198.8578 0020500 208.0211 234.5972 02.1315632721270,64.1441,0.00205,2.13156327,198.8578,208.0211,234.5972
19751,COSMOS 1989 (ETALON 1),NSO,16131.58644812,1 19751U 89001C   16131.58644812  .00000009  00000-0  00000+0 0  4860\,2 19751  64.1440 198.8245 0020505 208.0399 257.5974  2.13156345212794,64.144,0.0020505,2.13156345,198.8245,208.0399,257.5974
19751,COSMOS 1989 (ETALON 1),NSO,16131.91788398,1 19751U 89001C   16131.91788398  .00000003  00000-0  10000-3 0  4886\,2 19751  64.1441 198.8132 0020464 207.8529 152.1142  2.13156479212803,64.1441,0.0020464,2.13156479,198.8132,207.8529,152.1142
19751,COSMOS 1989 (ETALON 1),NSO,16132.47801721,1 19751U 89001C   16132.47801721 -.00000001 +00000-0 +00000-0 0 0001\,2 19751 064.1440 198.7939 0020507 208.0531 221.7414 02.1315636321274,64.144,0.0020507,2.13156363,198.7939,208.0531,221.7414
19751,COSMOS 1989 (ETALON 1),NSO,16133.09320525,1 19751U 89001C   16133.09320525 -.00000006  00000-0  00000+0 0  4891\,2 19751  64.1440 198.7728 0020507 208.0614 333.8058  2.13156376212820,64.144,0.0020507,2.13156376,198.7728,208.0614,333.8058
19751,COSMOS 1989 (ETALON 1),NSO,16133.44067387,1 19751U 89001C   16133.44067387 -.00000008 +00000-0 +00000-0 0 0001\,2 19751 064.1440 198.7609 0020508 208.0593 240.4426 02.1315638421276,64.144,0.0020508,2.13156384,198.7609,208.0593,240.4426
19751,COSMOS 1989 (ETALON 1),NSO,16134.26234475,1 19751U 89001C   16134.26234475 -.00000010  00000-0  00000+0 0  4906\,2 19751  64.1440 198.7327 0020505 208.0554 150.9665  2.13156400212848,64.144,0.0020505,2.131564,198.7327,208.0554,150.9665
19751,COSMOS 1989 (ETALON 1),NSO,16135.80645588,1 19751U 89001C   16135.80645588 -.00000001  00000-0  00000+0 0  4919\,2 19751  64.1440 198.6797 0020506 208.0571 255.8586  2.13156430212882,64.144,0.0020506,2.1315643,198.6797,208.0571,255.8586
19751,COSMOS 1989 (ETALON 1),NSO,16136.73205933,1 19751U 89001C   16136.73205933 +.00000009 +00000-0 +00000-0 0 0001\,2 19751 064.1440 198.6479 0020506 208.0511 246.1386 02.1315644821283,64.144,0.0020506,2.13156448,198.6479,208.0511,246.1386
19751,COSMOS 1989 (ETALON 1),NSO,16137.17646073,1 19751U 89001C   16137.17646073  .00000015  00000-0  00000+0 0  4926\,2 19751  64.1440 198.6327 0020507 208.0483 227.1587  2.13156456212919,64.144,0.0020507,2.13156456,198.6327,208.0483,227.1587
19751,COSMOS 1989 (ETALON 1),NSO,16137.50950207,1 19751U 89001C   16137.50950207 +.00000020 +00000-0 +00000-0 0 0001\,2 19751 064.1441 198.6212 0020506 208.0385 122.7322 02.1315646021284,64.1441,0.0020506,2.1315646,198.6212,208.0385,122.7322
19751,COSMOS 1989 (ETALON 1),NSO,16138.55434199,1 19751U 89001C   16138.55434199  .00000035  00000-0  00000+0 0  4936\,2 19751  64.1441 198.5854 0020510 208.0455 204.4969  2.13156474212942,64.1441,0.002051,2.13156474,198.5854,208.0455,204.4969
19751,COSMOS 1989 (ETALON 1),NSO,16139.36170175,1 19751U 89001C   16139.36170175 +.00000046 +00000-0 +00000-0 0 0001\,2 19751 064.1440 198.5577 0020514 208.0590 104.0216 02.1315648021288,64.144,0.0020514,2.1315648,198.5577,208.059,104.0216
19751,COSMOS 1989 (ETALON 1),NSO,16140.29918902,1 19751U 89001C   16140.29918902  .00000056  00000-0  00000+0 0  4943\,2 19751  64.1440 198.5255 0020519 208.0699 103.4040  2.13156482212975,64.144,0.0020519,2.13156482,198.5255,208.0699,103.404
19751,COSMOS 1989 (ETALON 1),NSO,16140.45367693,1 19751U 89001C   16140.45367693 +.00000058 +00000-0 +00000-0 0 0001\,2 19751 064.1440 198.5202 0020520 208.0763 221.9459 02.1315648221291,64.144,0.002052,2.13156482,198.5202,208.0763,221.9459
